QIANFAN-89              
1 63175U 25046S   25349.91340274  .00000148  00000+0  21059-3 0  9994
2 63175  88.9764 319.7090 0018137 112.7233 247.5837 13.50977261 47833
QIANFAN-90              
1 63176U 25046T   25349.94214048  .00000125  00000+0  17419-3 0  9997
2 63176  88.9764 319.6784 0015105 110.4551 249.8223 13.50977872 47857
QIANFAN-91              
1 66033U 25233A   25349.93322207  .00000036  00000+0  23273-4 0  9993
2 66033  88.9955  61.8201 0017793  36.4462 323.7911 13.76051239  8410
QIANFAN-92              
1 66034U 25233B   25349.91828628  .00000041  00000+0  27698-4 0  9991
2 66034  88.9953  61.8174 0017305  37.5862 322.6511 13.78027285  8413
QIANFAN-93              
1 66035U 25233C   25349.50407679  .00000041  00000+0  28266-4 0  9998
2 66035  88.9959  61.8676 0016173  38.6360 321.5960 13.78057357  8356
QIANFAN-94              
1 66036U 25233D   25349.89697373  .00000039  00000+0  24700-4 0  9999
2 66036  88.9958  61.8153 0016372  35.8125 324.4137 13.80327332  8416
QIANFAN-95              
1 66037U 25233E   25349.72643604  .00000413  00000+0  20608-3 0  9998
2 66037  88.9951  61.7161 0013090  35.1939 325.0110 14.15013943  8459
QIANFAN-96              
1 66038U 25233F   25349.53112530  .00000042  00000+0  29682-4 0  9997
2 66038  89.0084  61.8967 0016338  47.5590 312.6954 13.76977114  8354
